{"fetched_at":"2026-03-29T16:36:15Z","count":15609,"tles":[{"name":"STARLINK-35537","line1":"1 66234U 25245A   26087.79329285  .00034491  00000+0  11709-2 0  9997","line2":"2 66234  53.1577 195.0025 0001046  89.8390 270.2731 15.30209706 24181","category":"Starlink"}]}